#aV2014  2 15  0  0  0.00000000     288 DD+AD WGS84 FIT  NGA
## 1779 518400.00000000   300.00000000 56703 0.0000000000000
+   31     1  2  3  4  5  6  7  8  9 10 11 12 13 14 15 16 17
+         18 19 20 21 22 23 24 25 26 27 28 29 31 32  0  0  0
+          0  0  0  0  0  0  0  0  0  0  0  0  0  0  0  0  0
+          0  0  0  0  0  0  0  0  0  0  0  0  0  0  0  0  0
+          0  0  0  0  0  0  0  0  0  0  0  0  0  0  0  0  0
++         2  2  2  2  2  2  2  2  2  2  2  2  2  2  2  2  2
++         2  2  2  2  2  2  2  2  2  2  2  2  2  2  0  0  0
++         0  0  0  0  0  0  0  0  0  0  0  0  0  0  0  0  0
++         0  0  0  0  0  0  0  0  0  0  0  0  0  0  0  0  0
++         0  0  0  0  0  0  0  0  0  0  0  0  0  0  0  0  0
%c cc cc ccc ccc cccc cccc cccc cccc ccccc ccccc ccccc ccccc
%c cc cc ccc ccc cccc cccc cccc cccc ccccc ccccc ccccc ccccc
%f  0.0000000  0.000000000  0.00000000000  0.000000000000000
%f  0.0000000  0.000000000  0.00000000000  0.000000000000000
%i    0    0    0    0      0      0      0      0         0
%i    0    0    0    0      0      0      0      0         0
/*      NGA, ST. LOUIS,MO.                                  
/*   EPHEMERIS COMPUTED FROM  1 DAYS OF DATA                
/*   EPOCHA SMOOTHER                                       
/* CCCCCCCCCCCCCCCCCCCCCCCCCCCCCCCCCCCCCCCCCCCCCCCCCCCCCCCCC
*  2014  2 15 12  5  0.00000000
P  1  14447.817774  13268.800252 -17995.600547     -0.679003                    
V  1 -22785.045754    424.471093 -17891.854463      0.021449                    
P  2   8716.361063 -14758.178957  20433.936399    478.779134                    
V  2  25530.805459   1831.014527 -10197.531109      0.021778                    
P  3  -5590.135013  25082.858894  -6898.091720    326.076528                    
V  3  -6434.384176   6042.267943  29669.750739      0.049847                    
P  4  23431.795285  -6816.721806  10466.116364      5.569208                    
V  4  13583.637473   3455.773679 -27117.952371      0.002451                    
P  5    392.783187 -22003.513159  14717.042149   -388.435048                    
V  5  10972.711897  15536.396823  23026.307758      0.015868                    
P  6 -13093.983036  22839.320283    772.377821    276.460972                    
V  6  -2815.724711  -2603.096944  31613.854867      0.144194                    
P  7  25125.542376   6241.119726   6719.947125    314.145470                    
V  7  -8469.922355   1440.090976  30327.757306      0.041623                    
P  8  26394.282143   1185.284083  -4842.096262     11.934212                    
V  8   5947.091443   2119.111772  31382.670968      0.002537                    
P  9  25912.711914  -2854.030768  -6036.481442    305.676759                    
V  9   6838.425017   2134.979512  30930.139463      0.027843                    
P 10  14411.623950  -5720.501976  21244.210235   -114.401976                    
V 10  12511.797425  24847.984651  -1349.350960     -0.016335                    
P 11   6939.505409  15588.566846 -20852.539027   -464.492239                    
V 11 -24706.792517   7153.821123  -2718.091754     -0.032586                    
P 12 -11366.759489 -24139.681359   -120.027896    186.590415                    
V 12   1677.450329   -698.236097 -32165.382654      0.023476                    
P 13  13932.046400   5942.792766  21695.749199     29.379613                    
V 13 -17093.752971  21932.302316   4796.232257     -0.038653                    
P 14 -19780.971390  10864.356830 -13674.447260    198.098056                    
V 14   8935.940876 -15491.971938 -24986.782858     -0.031258                    
P 15   -129.676011 -21703.299058 -15164.002724   -163.261128                    
V 15  12136.952160 -15304.856625  22161.980278     -0.020811                    
P 16   -798.738740  21880.416131  14746.695266   -231.430311                    
V 16  -9337.296766 -16490.116600  24250.061453      0.015151                    
P 17  19398.133633 -12369.089054 -12817.011281    -68.474333                    
V 17  -7672.339411  15080.158943 -25893.918137     -0.033096                    
P 18 -18666.332161 -11557.971321 -14742.614622    302.061801                    
V 18  -6707.133288 -18451.186664  21972.603284      0.021436                    
P 19  -3116.647092  21332.512251 -15337.557018   -439.015046                    
V 19 -13625.544437  14009.312800  22868.441448     -0.024350                    
P 20  14382.419187  22337.701272   1128.944982    161.929770                    
V 20  -2424.144870   3391.280399 -30894.432111      0.033255                    
P 21 -25746.815310  -5345.896054   5873.767252   -344.105810                    
V 21   6734.953765  -2818.496342  29645.043357     -0.021159                    
P 22 -16564.067585   1809.352813 -20510.412103    213.545206                    
V 22 -11635.139395 -23953.843723   7058.645575      0.023377                    
P 23   6421.419228  16212.536121  20013.088854      3.761546                    
V 23 -14987.920841  20489.871626 -12246.510635     -0.032393                    
P 24  -9206.681384 -14558.083586 -20251.877921    -23.354659                    
V 24  25695.238949   -154.872628 -11489.109035     -0.006340                    
P 25 -17369.141883 -16759.472253  11168.140805     14.656262                    
V 25  -4880.705578 -13481.382258 -27555.441308      0.018167                    
P 26  11590.174148 -22775.295982  -7255.629575    164.416849                    
V 26   7035.604535  -5168.977182  30504.214812     -0.109395                    
P 27 -12035.019339  23411.584844  -3381.558838    -18.699847                    
V 27  -4640.636980   2146.332993  31427.904664     -0.011108                    
P 28  16061.733100   2867.122981 -20386.339242    332.720860                    
V 28  10349.888404  25140.478686  11221.147608      0.030315                    
P 29 -12381.352944  -8593.440542  21915.118035    511.173423                    
V 29  16023.855123 -22587.831443    238.861753      0.029683                    
P 31 -21021.022864   8194.573892  14425.701814    333.249876                    
V 31 -17729.543559  -2716.126304 -24263.279969      0.003068                    
P 32   4047.609616  25178.765041  -8284.924706   -485.258233                    
V 32  -6402.031382  -8687.001514 -28743.979774      0.064563                    
EOF
